NORAD_CAT_ID,OBJECT_NAME,OBJECT_TYPE,EPOCH,MEAN_MOTION,ECCENTRICITY,INCLINATION,RA_OF_ASC_NODE,ARG_OF_PERICENTER,MEAN_ANOMALY,BSTAR,MEAN_MOTION_DOT,MEAN_MOTION_DDOT,TLE_LINE0,TLE_LINE1,TLE_LINE2,SEMIMAJOR_AXIS,PERIOD,APOGEE,PERIGEE,DECAYED
56806.0,STARLINK-6072,PAYLOAD,2024-04-02 06:23:44,14.98328205,0.0002991,69.9994,285.4877,269.1225,90.9591,2.3525e-05,1.88e-06,0.0,0 STARLINK-6072,1 56806U 23078AR  24093.26649129  .00000188  00000-0  23525-4 0  9990,2 56806  69.9994 285.4877 0002991 269.1225  90.9591 14.98328205 48111,6950.198,96.107,574.142,569.985,0.0
56806.0,STARLINK-6072,PAYLOAD,2024-04-02 22:25:05,14.98333032,0.0003038,69.9992,283.8045,269.2647,90.8164,4.5083e-05,4.45e-06,0.0,0 STARLINK-6072,1 56806U 23078AR  24093.93408719  .00000445  00000-0  45083-4 0  9991,2 56806  69.9992 283.8045 0003038 269.2647  90.8164 14.98333032 47950,6950.184,96.107,574.16,569.937,0.0
56806.0,STARLINK-6072,PAYLOAD,2024-04-03 12:50:17,14.98331195,0.0003074,69.9988,282.2895,269.6483,90.4324,2.062e-05,1.53e-06,0.0,0 STARLINK-6072,1 56806U 23078AR  24094.53492810  .00000153  00000-0  20620-4 0  9999,2 56806  69.9988 282.2895 0003074 269.6483  90.4324 14.98331195 48305,6950.189,96.107,574.191,569.918,0.0
56806.0,STARLINK-6072,PAYLOAD,2024-04-03 22:27:06,14.98330335,0.0003098,69.9988,281.2797,269.9712,90.1092,4.431e-05,4.36e-06,0.0,0 STARLINK-6072,1 56806U 23078AR  24094.93548771  .00000436  00000-0  44310-4 0  9997,2 56806  69.9988 281.2797 0003098 269.9712  90.1092 14.98330335 48101,6950.192,96.107,574.21,569.904,0.0
56806.0,STARLINK-6072,PAYLOAD,2024-04-04 12:52:18,14.98330783,0.0003051,69.9991,279.7647,270.0668,90.0142,-3.8949e-05,-5.58e-06,0.0,0 STARLINK-6072,1 56806U 23078AR  24095.53632912 -.00000558  00000-0 -38949-4 0  9993,2 56806  69.9991 279.7647 0003051 270.0668  90.0142 14.98330783 48453,6950.19,96.107,574.176,569.935,0.0
56806.0,STARLINK-6072,PAYLOAD,2024-04-04 14:28:26,14.98330822,0.0003051,69.9991,279.5963,270.0563,90.0246,-3.7885e-05,-5.45e-06,0.0,0 STARLINK-6072,1 56806U 23078AR  24095.60308897 -.00000545  00000-0 -37885-4 0  9997,2 56806  69.9991 279.5963 0003051 270.0563  90.0246 14.98330822 48208,6950.19,96.107,574.176,569.935,0.0
56806.0,STARLINK-6072,PAYLOAD,2024-04-04 22:29:07,14.98332297,0.0003043,69.9992,278.7546,270.2536,89.8274,-2.1511e-05,-3.5e-06,0.0,0 STARLINK-6072,1 56806U 23078AR  24095.93688713 -.00000350  00000-0 -21511-4 0  9994,2 56806  69.9992 278.7546 0003043 270.2536  89.8274 14.98332297 48250,6950.186,96.107,574.166,569.936,0.0
56806.0,STARLINK-6072,PAYLOAD,2024-04-05 12:54:19,14.98334102,0.0003034,69.9993,277.2396,271.1094,88.9717,2.8375e-05,2.46e-06,0.0,0 STARLINK-6072,1 56806U 23078AR  24096.53772319  .00000246  00000-0  28375-4 0  9994,2 56806  69.9993 277.2396 0003034 271.1094  88.9717 14.98334102 48605,6950.18,96.107,574.154,569.937,0.0
56806.0,STARLINK-6072,PAYLOAD,2024-04-05 14:30:27,14.98334211,0.0003036,69.9993,277.0713,271.0917,88.9894,2.9136e-05,2.55e-06,0.0,0 STARLINK-6072,1 56806U 23078AR  24096.60448289  .00000255  00000-0  29136-4 0  9994,2 56806  69.9993 277.0713 0003036 271.0917  88.9894 14.98334211 48350,6950.18,96.107,574.155,569.935,0.0
56806.0,STARLINK-6072,PAYLOAD,2024-04-05 22:31:07,14.9833606,0.0003011,69.9994,276.2297,270.859,89.2224,4.52e-05,4.46e-06,0.0,0 STARLINK-6072,1 56806U 23078AR  24096.93828010  .00000446  00000-0  45200-4 0  9996,2 56806  69.9994 276.2297 0003011 270.8590  89.2224 14.98336060 48407,6950.174,96.107,574.132,569.946,0.0
56806.0,STARLINK-6072,PAYLOAD,2024-04-06 04:55:39,14.98331881,0.0003001,69.9994,275.5563,271.1421,88.9395,8.8402e-06,1.2e-07,0.0,0 STARLINK-6072,1 56806U 23078AR  24097.20532296  .00000012  00000-0  88402-5 0  9996,2 56806  69.9994 275.5563 0003001 271.1421  88.9395 14.98331881 48446,6950.187,96.107,574.138,569.966,0.0
56806.0,STARLINK-6072,PAYLOAD,2024-04-06 17:44:44,14.98328367,0.0002983,69.9995,274.2099,270.0527,90.029,-2.2942e-05,-3.67e-06,0.0,0 STARLINK-6072,1 56806U 23078AR  24097.73940562 -.00000367  00000-0 -22942-4 0  9994,2 56806  69.9995 274.2099 0002983 270.0527  90.0290 14.98328367 48780,6950.198,96.107,574.136,569.99,0.0
56806.0,STARLINK-6072,PAYLOAD,2024-04-06 22:33:08,14.98328394,0.0002982,69.9995,273.7049,270.1845,89.8972,-2.2484e-05,-3.61e-06,0.0,0 STARLINK-6072,1 56806U 23078AR  24097.93968560 -.00000361  00000-0 -22484-4 0  9999,2 56806  69.9995 273.7049 0002982 270.1845  89.8972 14.98328394 48550,6950.198,96.107,574.135,569.99,0.0
56806.0,STARLINK-6072,PAYLOAD,2024-04-07 04:57:41,14.98327606,0.0002972,69.9995,273.0316,269.5711,90.5107,-3.0833e-05,-4.61e-06,0.0,0 STARLINK-6072,1 56806U 23078AR  24098.20672644 -.00000461  00000-0 -30833-4 0  9993,2 56806  69.9995 273.0316 0002972 269.5711  90.5107 14.98327606 48591,6950.2,96.107,574.131,570.0,0.0
56806.0,STARLINK-6072,PAYLOAD,2024-04-07 20:59:01,14.98331714,0.0002833,69.9999,271.3486,268.5213,91.5621,-3.4308e-05,-5.02e-06,0.0,0 STARLINK-6072,1 56806U 23078AR  24098.87432382 -.00000502  00000-0 -34308-4 0  9996,2 56806  69.9999 271.3486 0002833 268.5213  91.5621 14.98331714 48953,6950.188,96.107,574.022,570.084,0.0
56806.0,STARLINK-6072,PAYLOAD,2024-04-08 11:24:13,14.98326768,0.0003022,69.996,269.8324,268.9569,91.1243,0.00011778,1.312e-05,0.0,0 STARLINK-6072,1 56806U 23078AR  24099.47516090  .00001312  00000-0  11778-3 0  9995,2 56806  69.9960 269.8324 0003022 268.9569  91.1243 14.98326768 48783,6950.203,96.107,574.168,569.968,0.0
56806.0,STARLINK-6072,PAYLOAD,2024-04-08 21:01:02,14.98320915,0.0002979,69.9977,268.8228,269.6325,90.4492,3.9161e-05,3.74e-06,0.0,0 STARLINK-6072,1 56806U 23078AR  24099.87572724  .00000374  00000-0  39161-4 0  9999,2 56806  69.9977 268.8228 0002979 269.6325  90.4492 14.98320915 48844,6950.221,96.108,574.156,570.016,0.0
56806.0,STARLINK-6072,PAYLOAD,2024-04-09 05:01:42,14.98326419,0.0003119,69.998,267.9818,270.2087,89.8715,1.0949e-05,3.8e-07,0.0,0 STARLINK-6072,1 56806U 23078AR  24100.20952511  .00000038  00000-0  10949-4 0  9995,2 56806  69.9980 267.9818 0003119 270.2087  89.8715 14.98326419 49153,6950.204,96.107,574.237,569.901,0.0
56806.0,STARLINK-6072,PAYLOAD,2024-04-09 09:50:07,14.98325291,0.0002982,69.9989,267.4763,272.9459,87.1359,8.5471e-05,9.27e-06,0.0,0 STARLINK-6072,1 56806U 23078AR  24100.40980487  .00000927  00000-0  85471-4 0  9999,2 56806  69.9989 267.4763 0002982 272.9459  87.1359 14.98325291 48921,6950.207,96.107,574.145,570.0,0.0
56806.0,STARLINK-6072,PAYLOAD,2024-04-09 21:03:04,14.98314425,0.000314,70.0024,266.2987,271.4108,88.6691,0.00011507,1.28e-05,0.0,0 STARLINK-6072,1 56806U 23078AR  24100.87713070  .00001280  00000-0  11507-3 0  9993,2 56806  70.0024 266.2987 0003140 271.4108  88.6691 14.98314425 48990,6950.241,96.108,574.288,569.924,0.0
56806.0,STARLINK-6072,PAYLOAD,2024-04-10 21:05:05,14.98323784,0.0003254,70.0003,263.7737,271.9317,88.147,-1.2861e-05,-2.46e-06,0.0,0 STARLINK-6072,1 56806U 23078AR  24101.87853285 -.00000246  00000-0 -12861-4 0  9995,2 56806  70.0003 263.7737 0003254 271.9317  88.1470 14.98323784 49400,6950.212,96.107,574.339,569.816,0.0
56806.0,STARLINK-6072,PAYLOAD,2024-04-11 13:06:25,14.98331309,0.0003383,69.9998,262.0904,272.3275,87.7497,0.00010543,1.165e-05,0.0,0 STARLINK-6072,1 56806U 23078AR  24102.54612515  .00001165  00000-0  10543-3 0  9992,2 56806  69.9998 262.0904 0003383 272.3275  87.7497 14.98331309 49506,6950.189,96.107,574.405,569.703,0.0
56806.0,STARLINK-6072,PAYLOAD,2024-04-11 14:42:33,14.98331436,0.0003384,69.9998,261.922,272.298,87.7791,0.00010508,1.161e-05,0.0,0 STARLINK-6072,1 56806U 23078AR  24102.61288505  .00001161  00000-0  10508-3 0  9995,2 56806  69.9998 261.9220 0003384 272.2980  87.7791 14.98331436 49258,6950.188,96.107,574.405,569.702,0.0
56806.0,STARLINK-6072,PAYLOAD,2024-04-11 21:07:05,14.98336456,0.0003281,70.0,261.249,271.9605,88.1179,0.00017243,1.965e-05,0.0,0 STARLINK-6072,1 56806U 23078AR  24102.87991946  .00001965  00000-0  17243-3 0  9998,2 56806  70.0000 261.2490 0003281 271.9605  88.1179 14.98336456 49299,6950.173,96.107,574.318,569.758,0.0
56806.0,STARLINK-6072,PAYLOAD,2024-04-12 13:08:26,14.98332288,0.000323,70.0003,259.566,271.9289,88.15,1.6314e-05,1.02e-06,0.0,0 STARLINK-6072,1 56806U 23078AR  24103.54752621  .00000102  00000-0  16314-4 0  9999,2 56806  70.0003 259.5660 0003230 271.9289  88.1500 14.98332288 49650,6950.186,96.107,574.296,569.806,0.0
56806.0,STARLINK-6072,PAYLOAD,2024-04-12 14:44:34,14.98332843,0.000322,70.0004,259.3977,272.1691,87.9099,2.3649e-05,1.89e-06,0.0,0 STARLINK-6072,1 56806U 23078AR  24103.61428550  .00000189  00000-0  23649-4 0  9992,2 56806  70.0004 259.3977 0003220 272.1691  87.9099 14.98332843 49409,6950.184,96.107,574.287,569.811,0.0
56806.0,STARLINK-6072,PAYLOAD,2024-04-13 14:46:35,14.98332499,0.000309,70.001,256.8735,269.3161,90.7644,-0.00010129,-1.301e-05,0.0,0 STARLINK-6072,1 56806U 23078AR  24104.61568722 -.00001301  00000-0 -10129-3 0  9996,2 56806  70.0010 256.8735 0003090 269.3161  90.7644 14.98332499 49556,6950.185,96.107,574.198,569.903,0.0
56806.0,STARLINK-6072,PAYLOAD,2024-04-13 19:34:58,14.98364993,0.0003227,70.001,256.3685,266.2327,93.8463,-0.00067783,-8.179e-05,0.0,0 STARLINK-6072,1 56806U 23078AR  24104.81595901 -.00008179  00000-0 -67783-3 0  9995,2 56806  70.0010 256.3685 0003227 266.2327  93.8463 14.98364993 49846,6950.085,96.105,574.192,569.707,0.0
56806.0,STARLINK-6072,PAYLOAD,2024-04-14 11:36:19,14.98330935,0.0003264,70.0005,254.6844,270.6533,89.4252,-3.9587e-06,-1.4e-06,0.0,0 STARLINK-6072,1 56806U 23078AR  24105.48356368 -.00000140  00000-0 -39587-5 0  9994,2 56806  70.0005 254.6844 0003264 270.6533  89.4252 14.98330935 49944,6950.19,96.107,574.324,569.786,0.0
56806.0,STARLINK-6072,PAYLOAD,2024-04-14 19:36:59,14.98337579,0.0002975,70.0013,253.8441,264.1588,95.9232,7.6293e-05,8.18e-06,0.0,0 STARLINK-6072,1 56806U 23078AR  24105.81735615  .00000818  00000-0  76293-4 0  9991,2 56806  70.0013 253.8441 0002975 264.1588  95.9232 14.98337579 49999,6950.169,96.107,574.102,569.967,0.0
